{"type": "FeatureCollection", "features": [ {"type": "Feature", "properties": {"norad_id": 32289, "name": "YAOGAN-3", "group": "resource", "lat": 60.62124561286811, "lon": -141.00004159595773, "alt_km": 591.6384278866199, "timestamp": "2025-12-24T07:45:05.855458+00:00", "meta": {"OBJECT_NAME": "YAOGAN-3", "OBJECT_ID": "2007-055A", "EPOCH": "2025-12-23T23:09:47.668320", "MEAN_MOTION": 14.8990918, "ECCENTRICITY": 0.0001234, "INCLINATION": 97.8351, "RA_OF_ASC_NODE": 24.4877, "ARG_OF_PERICENTER": 83.8659, "MEAN_ANOMALY": 276.2699, "EPHEMERIS_TYPE": 0, "CLASSIFICATION_TYPE": "U", "NORAD_CAT_ID": 32289, "ELEMENT_SET_NO": 999, "REV_AT_EPOCH": 97976, "BSTAR": 0.00026849945, "MEAN_MOTION_DOT": 2.528e-05, "MEAN_MOTION_DDOT": 0}, "tle": {"line1": "1 32289U 07055A   25357.96513505  .00002528  00000+0  26850-3 0  9997", "line2": "2 32289  97.8351  24.4877 0001234  83.8659 276.2699 14.89909180979768"}}, "geometry": {"type": "Point", "coordinates": [-141.00004159595773, 60.62124561286811]}}, {"type": "Feature", "properties": {"norad_id": 32376, "name": "COSMO-SKYMED 2", "group": "resource", "lat": 73.49765948406358, "lon": 151.59839075665525, "alt_km": 614.5779538273246, "timestamp": "2025-12-24T07:45:05.855469+00:00", "meta": {"OBJECT_NAME": "COSMO-SKYMED 2", "OBJECT_ID": "2007-059A", "EPOCH": "2025-12-23T23:18:40.460832", "MEAN_MOTION": 14.82155863, "ECCENTRICITY": 0.00013109, "INCLINATION": 97.8805, "RA_OF_ASC_NODE": 179.1259, "ARG_OF_PERICENTER": 82.5112, "MEAN_ANOMALY": 277.625, "EPHEMERIS_TYPE": 0, "CLASSIFICATION_TYPE": "U", "NORAD_CAT_ID": 32376, "ELEMENT_SET_NO": 999, "REV_AT_EPOCH": 97604, "BSTAR": 7.3597305e-05, "MEAN_MOTION_DOT": 5.34e-06, "MEAN_MOTION_DDOT": 0}, "tle": {"line1": "1 32376U 07059A   25357.97130163  .00000534  00000+0  73597-4 0  9990", "line2": "2 32376  97.8805 179.1259 0001310  82.5112 277.6250 14.82155863976046"}}, "geometry": {"type": "Point", "coordinates": [151.59839075665525, 73.49765948406358]}}, {"type": "Feature", "properties": {"norad_id": 32382, "name": "RADARSAT-2", "group": "resource", "lat": 12.359587488238596, "lon": 0.8485505177150952, "alt_km": 792.7286635954197, "timestamp": "2025-12-24T07:45:05.855480+00:00", "meta": {"OBJECT_NAME": "RADARSAT-2", "OBJECT_ID": "2007-061A", "EPOCH": "2025-12-23T23:17:48.637248", "MEAN_MOTION": 14.29984569, "ECCENTRICITY": 0.00011191, "INCLINATION": 98.5793, "RA_OF_ASC_NODE": 2.3971, "ARG_OF_PERICENTER": 85.9406, "MEAN_ANOMALY": 274.1904, "EPHEMERIS_TYPE": 0, "CLASSIFICATION_TYPE": "U", "NORAD_CAT_ID": 32382, "ELEMENT_SET_NO": 999, "REV_AT_EPOCH": 94091, "BSTAR": 7.620558e-06, "MEAN_MOTION_DOT": -2.4e-07, "MEAN_MOTION_DDOT": 0}, "tle": {"line1": "1 32382U 07061A   25357.97070182 -.00000024  00000+0  76206-5 0  9990", "line2": "2 32382  98.5793   2.3971 0001119  85.9406 274.1904 14.29984569940914"}}, "geometry": {"type": "Point", "coordinates": [0.8485505177150952, 12.359587488238596]}}, {"type": "Feature", "properties": {"norad_id": 32783, "name": "CARTOSAT-2A", "group": "resource", "lat": 78.59358473363243, "lon": 5.046275027069772, "alt_km": 628.6343564790104, "timestamp": "2025-12-24T07:45:05.855490+00:00", "meta": {"OBJECT_NAME": "CARTOSAT-2A", "OBJECT_ID": "2008-021A", "EPOCH": "2025-12-23T23:15:54.794016", "MEAN_MOTION": 14.78949968, "ECCENTRICITY": 0.00110011, "INCLINATION": 97.7911, "RA_OF_ASC_NODE": 47.4412, "ARG_OF_PERICENTER": 327.2712, "MEAN_ANOMALY": 32.7817, "EPHEMERIS_TYPE": 0, "CLASSIFICATION_TYPE": "U", "NORAD_CAT_ID": 32783, "ELEMENT_SET_NO": 999, "REV_AT_EPOCH": 95290, "BSTAR": 7.2314326e-05, "MEAN_MOTION_DOT": 4.84e-06, "MEAN_MOTION_DDOT": 0}, "tle": {"line1": "1 32783U 08021A   25357.96938419  .00000484  00000+0  72314-4 0  9991", "line2": "2 32783  97.7911  47.4412 0011001 327.2712  32.7817 14.78949968952906"}}, "geometry": {"type": "Point", "coordinates": [5.046275027069772, 78.59358473363243]}}, {"type": "Feature", "properties": {"norad_id": 33320, "name": "HUANJING 1A (HJ-1A)", "group": "resource", "lat": 46.443924397464485, "lon": 174.2692039246779, "alt_km": 624.0922373654284, "timestamp": "2025-12-24T07:45:05.855501+00:00", "meta": {"OBJECT_NAME": "HUANJING 1A (HJ-1A)", "OBJECT_ID": "2008-041A", "EPOCH": "2025-12-23T23:03:38.564064", "MEAN_MOTION": 14.83427083, "ECCENTRICITY": 0.00193136, "INCLINATION": 97.6546, "RA_OF_ASC_NODE": 345.7907, "ARG_OF_PERICENTER": 358.7486, "MEAN_ANOMALY": 1.3677, "EPHEMERIS_TYPE": 0, "CLASSIFICATION_TYPE": "U", "NORAD_CAT_ID": 33320, "ELEMENT_SET_NO": 999, "REV_AT_EPOCH": 93242, "BSTAR": 0.00015514087, "MEAN_MOTION_DOT": 1.226e-05, "MEAN_MOTION_DDOT": 0}, "tle": {"line1": "1 33320U 08041A   25357.96086301  .00001226  00000+0  15514-3 0  9998", "line2": "2 33320  97.6546 345.7907 0019313 358.7486   1.3677 14.83427083932427"}}, "geometry": {"type": "Point", "coordinates": [174.2692039246779, 46.443924397464485]}}, {"type": "Feature", "properties": {"norad_id": 33321, "name": "HUANJING 1B (HJ-1B)", "group": "resource", "lat": -30.344116687762543, "lon": -5.688853899577822, "alt_km": 617.0037616752543, "timestamp": "2025-12-24T07:45:05.855512+00:00", "meta": {"OBJECT_NAME": "HUANJING 1B (HJ-1B)", "OBJECT_ID": "2008-041B", "EPOCH": "2025-12-23T23:47:29.232384", "MEAN_MOTION": 14.8284783, "ECCENTRICITY": 0.00377872, "INCLINATION": 97.6402, "RA_OF_ASC_NODE": 349.4873, "ARG_OF_PERICENTER": 40.0423, "MEAN_ANOMALY": 320.3566, "EPHEMERIS_TYPE": 0, "CLASSIFICATION_TYPE": "U", "NORAD_CAT_ID": 33321, "ELEMENT_SET_NO": 999, "REV_AT_EPOCH": 93244, "BSTAR": 0.0001338043, "MEAN_MOTION_DOT": 1.045e-05, "MEAN_MOTION_DDOT": 0}, "tle": {"line1": "1 33321U 08041B   25357.99131056  .00001045  00000+0  13380-3 0  9998", "line2": "2 33321  97.6402 349.4873 0037787  40.0423 320.3566 14.82847830932447"}}, "geometry": {"type": "Point", "coordinates": [-5.688853899577822, -30.344116687762543]}}, {"type": "Feature", "properties": {"norad_id": 33331, "name": "GEOEYE 1", "group": "resource", "lat": -75.058222525439, "lon": 101.81862770564018, "alt_km": 683.9088941363043, "timestamp": "2025-12-24T07:45:05.855528+00:00", "meta": {"OBJECT_NAME": "GEOEYE 1", "OBJECT_ID": "2008-042A", "EPOCH": "2025-12-23T22:16:02.937792", "MEAN_MOTION": 14.64714663, "ECCENTRICITY": 0.00029457, "INCLINATION": 98.1238, "RA_OF_ASC_NODE": 69.067, "ARG_OF_PERICENTER": 236.1099, "MEAN_ANOMALY": 123.9824, "EPHEMERIS_TYPE": 0, "CLASSIFICATION_TYPE": "U", "NORAD_CAT_ID": 33331, "ELEMENT_SET_NO": 999, "REV_AT_EPOCH": 92449, "BSTAR": 0.00011712833, "MEAN_MOTION_DOT": 5.76e-06, "MEAN_MOTION_DDOT": 0}, "tle": {"line1": "1 33331U 08042A   25357.92781178  .00000576  00000+0  11713-3 0  9995", "line2": "2 33331  98.1238  69.0670 0002945 236.1099 123.9824 14.64714663924493"}}, "geometry": {"type": "Point", "coordinates": [101.81862770564018, -75.058222525439]}}, {"type": "Feature", "properties": {"norad_id": 33396, "name": "THEOS", "group": "resource", "lat": 77.7033401934707, "lon": 12.1996283033934, "alt_km": 816.8547770537534, "timestamp": "2025-12-24T07:45:05.855538+00:00", "meta": {"OBJECT_NAME": "THEOS", "OBJECT_ID": "2008-049A", "EPOCH": "2025-12-23T22:54:57.557376", "MEAN_MOTION": 14.2009742, "ECCENTRICITY": 0.00012221, "INCLINATION": 98.5849, "RA_OF_ASC_NODE": 55.7128, "ARG_OF_PERICENTER": 93.3739, "MEAN_ANOMALY": 266.7577, "EPHEMERIS_TYPE": 0, "CLASSIFICATION_TYPE": "U", "NORAD_CAT_ID": 33396, "ELEMENT_SET_NO": 999, "REV_AT_EPOCH": 89309, "BSTAR": -7.4221436e-05, "MEAN_MOTION_DOT": -2.01e-06, "MEAN_MOTION_DDOT": 0}, "tle": {"line1": "1 33396U 08049A   25357.95483284 -.00000201  00000+0 -74221-4 0  9994", "line2": "2 33396  98.5849  55.7128 0001222  93.3739 266.7577 14.20097420893096"}}, "geometry": {"type": "Point", "coordinates": [12.1996283033934, 77.7033401934707]}}, {"type": "Feature", "properties": {"norad_id": 33412, "name": "COSMO-SKYMED 3", "group": "resource", "lat": 58.788549011072, "lon": 42.06516924436155, "alt_km": 532.9060552607489, "timestamp": "2025-12-24T07:45:05.855549+00:00", "meta": {"OBJECT_NAME": "COSMO-SKYMED 3", "OBJECT_ID": "2008-054A", "EPOCH": "2025-12-23T21:38:54.819168", "MEAN_MOTION": 15.05452552, "ECCENTRICITY": 0.00171211, "INCLINATION": 97.8456, "RA_OF_ASC_NODE": 208.4827, "ARG_OF_PERICENTER": 135.2665, "MEAN_ANOMALY": 224.9945, "EPHEMERIS_TYPE": 0, "CLASSIFICATION_TYPE": "U", "NORAD_CAT_ID": 33412, "ELEMENT_SET_NO": 999, "REV_AT_EPOCH": 93055, "BSTAR": 0.00043820205, "MEAN_MOTION_DOT": 6.251e-05, "MEAN_MOTION_DDOT": 0}, "tle": {"line1": "1 33412U 08054A   25357.90202337  .00006251  00000+0  43820-3 0  9991", "line2": "2 33412  97.8456 208.4827 0017121 135.2665 224.9945 15.05452552930556"}}, "geometry": {"type": "Point", "coordinates": [42.06516924436155, 58.788549011072]}}, {"type": "Feature", "properties": {"norad_id": 33446, "name": "YAOGAN-4", "group": "resource", "lat": -55.23334414533684, "lon": 96.74080986534962, "alt_km": 621.5471424553452, "timestamp": "2025-12-24T07:45:05.855559+00:00", "meta": {"OBJECT_NAME": "YAOGAN-4", "OBJECT_ID": "2008-061A", "EPOCH": "2025-12-23T12:52:24.131424", "MEAN_MOTION": 14.82712321, "ECCENTRICITY": 0.00130241, "INCLINATION": 97.9197, "RA_OF_ASC_NODE": 287.5304, "ARG_OF_PERICENTER": 285.0861, "MEAN_ANOMALY": 74.8911, "EPHEMERIS_TYPE": 0, "CLASSIFICATION_TYPE": "U", "NORAD_CAT_ID": 33446, "ELEMENT_SET_NO": 999, "REV_AT_EPOCH": 91963, "BSTAR": 0.00016555221, "MEAN_MOTION_DOT": 1.284e-05, "MEAN_MOTION_DDOT": 0}, "tle": {"line1": "1 33446U 08061A   25357.53639041  .00001284  00000+0  16555-3 0  9997", "line2": "2 33446  97.9197 287.5304 0013024 285.0861  74.8911 14.82712321919632"}}, "geometry": {"type": "Point", "coordinates": [96.74080986534962, -55.23334414533684]}}]}